HST                     
1 20580U 90037B   21276.80907398  .00000984  00000-0  48425-4 0  9994
2 20580  28.4701  68.0634 0002718 145.9373 356.2969 15.09760495527387
POLAR                   
1 23802U 96013A   21275.02538251  .00000242  00000-0  00000-0 0  9995
2 23802  78.7232 244.2648 5941675 267.6315  27.3875  1.29847025122536
SWAS                    
1 25560U 98071A   21277.01425652  .00000399  00000-0  45705-4 0  9993
2 25560  69.8972 271.9187 0009398 327.1662  32.8909 14.94155633239974
CXO                     
1 25867U 99040B   21279.18173032  .00001054  00000-0  00000-0 0  9996
2 25867  52.3919 250.4236 8487795 227.4311   0.4970  0.37816563 10852
XMM-NEWTON              
1 25989U 99066A   21278.21066766  .00000106  00000-0  00000-0 0  9994
2 25989  70.6291 309.7594 6415373  89.4176   0.0207  0.50138269 14391
TERRA                   
1 25994U 99068A   21277.46982812  .00000111  00000-0  34513-4 0  9993
2 25994  98.1675 349.8504 0001343  91.5822 279.0767 14.57133609159347
CLUSTER II-FM7 (SAMBA)  
1 26410U 00041A   21278.30572736  .00000091  00000-0  00000+0 0  9990
2 26410 133.1407 345.4193 5114266 194.3217   0.8714  0.44193836 24447
CLUSTER II-FM6 (SALSA)  
1 26411U 00041B   21278.30000498 -.00000059  00000-0  00000-0 0  9998
2 26411 134.2588 347.6322 6662973 198.9281   0.8822  0.44213669 12739
CLUSTER II-FM5 (RUMBA)  
1 26463U 00045A   21278.30332685  .00000039  00000-0  00000-0 0  9992
2 26463 137.8861 347.7389 6206012 199.3810   0.8927  0.44214389 12628
CLUSTER II-FM8 (TANGO)  
1 26464U 00045B   21278.30482425  .00000091  00000-0  00000-0 0  9999
2 26464 133.1438 345.4145 5111370 194.3324   0.8141  0.44219549 12697
ODIN                    
1 26702U 01007A   21276.92529609  .00001337  00000-0  89201-4 0  9993
2 26702  97.5354 291.4716 0012276  89.1946 271.0689 15.08683118127584
TIMED                   
1 26998U 01055B   21276.89971832  .00000297  00000-0  36144-4 0  9990
2 26998  74.0718  70.5947 0001330 325.9188  34.1907 14.88354288 74835
RHESSI                  
1 27370U 02004A   21277.03978662  .00007299  00000-0  20682-3 0  9993
2 27370  38.0324 150.6641 0012860 257.4922 102.4412 15.35963758 87104
INTEGRAL                
1 27540U 02048A   21276.23410000 -.00000041  00000-0  00000-0 0  9996
2 27540  67.5314  76.6596 8974867 299.9640 256.1497  0.37584442 20185
CORIOLIS                
1 27640U 03001A   21276.95154375  .00000028  00000-0  34237-4 0  9993
2 27640  98.7231 285.0345 0015183 113.7098 303.9921 14.19083587970576
SORCE                   
1 27651U 03004A   21276.55222804  .00000450  00000-0  60540-4 0  9992
2 27651  39.9948 211.2164 0021818 108.7845 251.5314 14.89385163 14751
MOST                    
1 27843U 03031D   21277.06154654  .00000016  00000-0  27547-4 0  9997
2 27843  98.7108 283.4375 0010310 161.7465 198.4083 14.20646155946844
SCISAT 1                
1 27858U 03036A   21276.88095437  .00000145  00000-0  25331-4 0  9992
2 27858  73.9339 330.5792 0006648  62.8589 297.3262 14.77375969977537
SWIFT                   
1 28485U 04047A   21276.46795618  .00001822  00000-0  93365-4 0  9999
2 28485  20.5574 312.3102 0010686 283.2194  76.7048 15.05164064924766
FORMOSAT-3 FM6          
1 29047U 06011A   21276.90367081  .00000147  00000-0  73599-4 0  9991
2 29047  71.9781 223.5688 0051715 323.3632  36.3972 14.28841335808917
FORMOSAT-3 FM1          
1 29048U 06011B   21277.35410135  .00000099  00000-0  55169-4 0  9990
2 29048  71.9649 133.0123 0045444 283.1349  76.4718 14.28806088811463
FORMOSAT-3 FM5          
1 29049U 06011C   21276.83931274  .00000111  00000-0  59966-4 0  9999
2 29049  72.0197 308.4057 0036838 304.9023  54.8653 14.28888300807174
FORMOSAT-3 FM3          
1 29050U 06011D   21276.77546043  .00000383  00000-0  90344-4 0  9996
2 29050  72.0170  46.1775 0049866 186.6554 173.3943 14.59126400825347
FORMOSAT-3 FM4          
1 29051U 06011E   21276.89814154  .00000093  00000-0  51906-4 0  9990
2 29051  72.0054 209.4174 0068478 187.8290 172.1785 14.28919716809761
FORMOSAT-3 FM2          
1 29052U 06011F   21277.42269889  .00000088  00000-0  50781-4 0  9994
2 29052  72.0325 283.9714 0042411 264.3454  95.2846 14.29029777808225
CLOUDSAT                
1 29107U 06016A   21276.89589179  .00000198  00000-0  48391-4 0  9993
2 29107  98.2899 230.2722 0003896  42.0499 318.1001 14.62726517821521
CALIPSO                 
1 29108U 06016B   21276.88037581  .00000307  00000-0  69875-4 0  9990
2 29108  98.2871 229.9509 0001360  83.2355 276.9000 14.62601181821532
HINODE (SOLAR-B)        
1 29479U 06041A   21276.91999104  .00000160  00000-0  39167-4 0  9999
2 29479  98.1347 290.2300 0018209 316.2233  43.7525 14.64594259803209
SJ-6C                   
1 29505U 06046A   21277.38136267  .00000174  00000-0  21105-4 0  9997
2 29505  97.7978 295.0025 0003286 255.7322 104.3548 14.95266515814426
SJ-6D                   
1 29506U 06046B   21277.46002461  .00000236  00000-0  27793-4 0  9993
2 29506  97.8172 295.3043 0002146  26.3557 333.7786 14.93644355813929
AGILE                   
1 31135U 07013A   21277.02519429  .00005271  00000-0  11968-3 0  9998
2 31135   2.4674  86.9582 0011160  23.0009 337.0544 15.34103145804857
AIM                     
1 31304U 07015A   21276.75138026  .00002973  00000-0  16401-3 0  9990
2 31304  97.8576 182.0455 0005253 160.3197 199.8238 15.14783926792309
FGRST (GLAST)           
1 33053U 08029A   21276.87638186  .00000933  00000-0  36440-4 0  9994
2 33053  25.5818 115.7934 0012544  88.0954 272.1017 15.11607379735044
WISE                    
1 36119U 09071A   21277.38028854  .00002428  00000-0  82922-4 0  9997
2 36119  97.2749 311.9258 0003985 118.3901 241.7743 15.31255140656313
SDO                     
1 36395U 10005A   21277.06423586 -.00000042  00000-0  00000+0 0  9991
2 36395  31.1607 113.4103 0000192 283.9548 257.0564  1.00274223 42815
CRYOSAT 2               
1 36508U 10013A   21276.94092448  .00000136  00000-0  33023-4 0  9990
2 36508  92.0213 221.9795 0007661  53.9919 306.1998 14.51906389608918
X-SAT                   
1 37389U 11015C   21277.39524085 -.00000035  00000-0  27610-5 0  9993
2 37389  98.3725 318.2067 0013896 347.7010  12.3832 14.24390661543751
GCOM-W1 (SHIZUKU)       
1 38337U 12025A   21277.44142670  .00000137  00000-0  40578-4 0  9990
2 38337  98.2156 216.5920 0000706  50.3669  62.5840 14.57095707499028
NUSTAR                  
1 38358U 12031A   21276.30263743  .00001448  00000-0  76965-4 0  9994
2 38358   6.0263  73.4628 0012162 230.2629 129.6427 14.88628141506467
NEOSSAT                 
1 39089U 13009D   21276.79688202  .00000098  00000-0  49973-4 0  9995
2 39089  98.4361 114.3296 0010684 326.1837  33.8666 14.34586645450419
IRIS                    
1 39197U 13033A   21276.77501555  .00000288  00000-0  46036-4 0  9993
2 39197  97.9681  99.9994 0028456 137.2579 223.0852 14.78905589446034
HISAKI (SPRINT-A)       
1 39253U 13049A   21276.80824894  .00000142  00000-0  10466-3 0  9997
2 39253  29.7204 308.9324 0137156 137.3100 223.8219 13.55250872399304
CASSIOPE                
1 39265U 13055A   21277.10969942  .00010646  00000-0  29390-3 0  9991
2 39265  80.9692 177.9362 0644699 354.7710   4.6938 14.33328188415530
STSAT-3                 
1 39422U 13066G   21277.32031230  .00000298  00000-0  36166-4 0  9994
2 39422  97.4777 291.3435 0024014  58.0163 302.3406 14.90023150427695
SWARM B                 
1 39451U 13067A   21276.87804334  .00000817  00000-0  34095-4 0  9995
2 39451  87.7521 138.2483 0002289 114.2326 245.9159 15.22157984421919
SWARM A                 
1 39452U 13067B   21276.85641882  .00003060  00000-0  61674-4 0  9997
2 39452  87.3590 318.2434 0002749  78.4729 281.6838 15.46092567442282
SWARM C                 
1 39453U 13067C   21276.85639501  .00003197  00000-0  64470-4 0  9991
2 39453  87.3443 318.2372 0002749  78.4460 281.7107 15.46092565442247
BRITE-CA1 (TORONTO)     
1 40020U 14033L   21277.41363703  .00000184  00000-0  39578-4 0  9992
2 40020  97.7524  84.9121 0087240   1.1861 358.9535 14.66775717390231
OCO 2                   
1 40059U 14035A   21277.41666488  .00000115  00000-0  35545-4 0  9996
2 40059  98.2164 217.3134 0001350  90.7867 269.3486 14.57109244386054
BRITE-PL2 (HEWELIUSZ)   
1 40119U 14049B   21276.80071335  .00000285  00000-0  40046-4 0  9991
2 40119  97.8882  10.1537 0017392   6.6424 353.5018 14.84711252385927
RESURS P2               
1 40360U 14087A   21277.48661274  .00002329  00000-0  71839-4 0  9998
2 40360  97.2241   2.7253 0007821 291.7267 166.3542 15.34559364378988
MMS 1                   
1 40482U 15011C   21258.42058084 -.00001860  00000-0  00000+0 0  9990
2 40482  33.5007 114.6989 8436997  37.2833  47.6472  0.28495839 12515
MMS 2                   
1 40483U 15011A   21258.46668899 -.00001857  00000-0  00000+0 0  9992
2 40483  33.5068 114.6905 8434770  37.2948  52.3509  0.28491614 12493
MMS 3                   
1 40484U 15011C   21258.46668899 -.00001860  00000-0  00000+0 0  9997
2 40484  33.4821 114.6504 8437754  37.3586  52.3120  0.28489266 12498
MMS 4                   
1 40485U 15011D   21258.42057985 -.00001860  00000-0  00000+0 0  9992
2 40485  33.5009 114.7085 8435900  37.2916  47.5998  0.28495883 12491
ASTROSAT                
1 40930U 15052A   21277.19411424  .00000921  00000-0  40192-4 0  9996
2 40930   5.9957 205.3608 0008272 132.5716 227.5110 14.76405719325261
DAMPE                   
1 41173U 15078A   21277.50877998  .00000394  00000-0  19102-4 0  9992
2 41173  97.3584 267.6064 0014532  27.7493  86.2061 15.24065691322595
PISAT                   
1 41784U 16059B   21277.41276014  .00000208  00000-0  48675-4 0  9993
2 41784  97.9555 325.2403 0030567 257.9055 101.8722 14.63666347268237
HXMT (HUIYAN)           
1 42758U 17034A   21277.45507897  .00001031  00000-0  77022-4 0  9992
2 42758  43.0184 314.7600 0007019 121.9701   9.0814 15.09342980237484
FLYING LAPTOP           
1 42831U 17042G   21277.32442815  .00000990  00000-0  10427-3 0  9995
2 42831  97.4543 141.2422 0014991 139.0816 221.1505 14.91362260229913
PICSAT                  
1 43132U 18004X   21276.77089230  .00004568  00000-0  17814-3 0  9997
2 43132  97.4019 350.3302 0008972 176.2693 183.8614 15.26410121207206
ZHANGZHENG-1 (CSES)     
1 43194U 18015C   21277.53208715  .00003468  00000-0  16027-3 0  9996
2 43194  97.4918  44.2005 0009576 251.4586 174.9714 15.20816094203727
ICON                    
1 44628U 19068A   21277.44513128  .00001086  00000-0  84764-4 0  9993
2 44628  26.9886 180.5211 0019014  82.1135 278.1580 14.92050234108277
SALSAT                  
1 46495U 20068K   21276.94169557  .00000722  00000-0  57204-4 0  9991
2 46495  97.6990 213.8304 0018986  67.2026 293.1202 15.03576690 55636
